1 29155U 06018A   11265.30837619 -.00000258  00000-0  10000-3 0  7526
2 29155 000.1121 077.5462 0003407 035.5971 283.7596 01.00264624 19559